GPS BIIR-2  (PRN 13)    
1 24876U 97035A   22147.42195966  .00000088  00000+0  00000+0 0  9993
2 24876  55.5078 156.4937 0057531  51.1337 309.4159  2.00563379182237
GPS BIIR-4  (PRN 20)    
1 26360U 00025A   22148.54892484 -.00000074  00000+0  00000+0 0  9995
2 26360  54.0431  79.6880 0047883 184.0180 357.9922  2.00573996161574
GPS BIIR-6  (PRN 22)    
1 26605U 00071A   22148.16469738  .00000077  00000+0  00000+0 0  9990
2 26605  55.0914 153.4661 0135991 254.2115 140.7925  2.00560897157816
GPS BIIR-8  (PRN 16)    
1 27663U 03005A   22148.32909956 -.00000062  00000+0  00000+0 0  9999
2 27663  55.5259 273.8602 0125838  41.0413 322.9960  2.00565812141618
GPS BIIR-9  (PRN 21)    
1 27704U 03010A   22148.50186490 -.00000106  00000+0  00000+0 0  9990
2 27704  55.0171  24.1131 0245051 305.5816  40.6680  2.00555153140407
GPS BIIR-11 (PRN 19)    
1 28190U 04009A   22148.34496894 -.00000088  00000+0  00000+0 0  9992
2 28190  56.0166 334.8346 0090437 119.4714  52.1941  2.00560887133248
GPS BIIR-13 (PRN 02)    
1 28474U 04045A   22148.40682501 -.00000106  00000+0  00000+0 0  9997
2 28474  55.3444  24.2471 0206587 278.8381 207.0014  2.00564481128732
GPS BIIRM-1 (PRN 17)    
1 28874U 05038A   22148.56833417 -.00000088  00000+0  00000+0 0  9994
2 28874  56.0834 332.2596 0137172 274.4386  79.3840  2.00577728122130
GPS BIIRM-2 (PRN 31)    
1 29486U 06042A   22148.43986771  .00000049  00000+0  00000+0 0  9994
2 29486  54.7162 210.0693 0103291  21.2512 157.8646  2.00555207114690
GPS BIIRM-3 (PRN 12)    
1 29601U 06052A   22147.63300653 -.00000067  00000+0  00000+0 0  9995
2 29601  55.5326 272.8245 0084394  74.0371 286.8713  2.00549720113690
GPS BIIRM-4 (PRN 15)    
1 32260U 07047A   22147.95099218  .00000059  00000+0  00000+0 0  9992
2 32260  53.3094 141.3930 0138668  62.2897 299.1157  2.00549317107100
GPS BIIRM-5 (PRN 29)    
1 32384U 07062A   22148.01947470 -.00000087  00000+0  00000+0 0  9998
2 32384  56.2020 333.0395 0020114 134.8116  46.3600  2.00560963105809
GPS BIIRM-6 (PRN 07)    
1 32711U 08012A   22147.86462939  .00000047  00000+0  00000+0 0  9997
2 32711  54.4758 209.0324 0163031 230.7093 127.9134  2.00564725104044
GPS BIIRM-8 (PRN 05)    
1 35752U 09043A   22147.85733019 -.00000060  00000+0  00000+0 0  9995
2 35752  55.0564  86.3564 0058105  57.7508 314.1323  2.00557343 93651
GPS BIIF-1  (PRN 25)    
1 36585U 10022A   22147.77568466 -.00000062  00000+0  00000+0 0  9994
2 36585  54.8149 268.3528 0103169  56.8680  12.4900  2.00564250 87888
GPS BIIF-2  (PRN 01)    
1 37753U 11036A   22148.55559983 -.00000104  00000+0  00000+0 0  9996
2 37753  56.5971  29.4778 0117391  51.5456 305.9847  2.00565385 79573
GPS BIIF-3  (PRN 24)    
1 38833U 12053A   22148.04472389  .00000055  00000+0  00000+0 0  9998
2 38833  53.5304 204.1860 0123132  46.0157 315.0779  2.00561609 69739
GPS BIIF-4  (PRN 27)    
1 39166U 13023A   22148.40199006 -.00000088  00000+0  00000+0 0  9995
2 39166  55.7117 328.6465 0104031  38.1130 322.6214  2.00566114 66188
GPS BIIF-5  (PRN 30)    
1 39533U 14008A   22148.40009642  .00000048  00000+0  00000+0 0  9998
2 39533  53.6248 209.6757 0059529 208.0448 151.7150  2.00552540 59989
GPS BIIF-6  (PRN 06)    
1 39741U 14026A   22148.18208827 -.00000105  00000+0  00000+0 0  9995
2 39741  56.5591  29.0180 0027248 307.7772  52.0208  2.00557586 58832
GPS BIIF-7  (PRN 09)    
1 40105U 14045A   22148.26697909  .00000068  00000+0  00000+0 0  9991
2 40105  54.6882 147.6096 0018683 109.4271 250.7912  2.00576693 56373
GPS BIIF-8  (PRN 03)    
1 40294U 14068A   22148.14486998 -.00000056  00000+0  00000+0 0  9994
2 40294  55.8010  88.7370 0040206  53.2312 307.1001  2.00570123 55508
GPS BIIF-9  (PRN 26)    
1 40534U 15013A   22148.28089665 -.00000054  00000+0  00000+0 0  9995
2 40534  53.7159 265.5313 0068558  20.6356 339.6313  2.00553742 52123
GPS BIIF-10 (PRN 08)    
1 40730U 15033A   22147.94674885 -.00000088  00000+0  00000+0 0  9998
2 40730  55.2110 327.5035 0074207   7.9658 352.1523  2.00553001 50282
GPS BIIF-11 (PRN 10)    
1 41019U 15062A   22147.99210604 -.00000055  00000+0  00000+0 0  9995
2 41019  55.7898  88.5854 0077551 218.4707 140.9404  2.00562802 48123
GPS BIIF-12 (PRN 32)    
1 41328U 16007A   22148.08453091  .00000071  00000+0  00000+0 0  9995
2 41328  54.9062 148.2838 0061664 230.5358 128.9352  2.00571642 46130
GPS BIII-1  (PRN 04)    
1 43873U 18109A   22148.45802307  .00000071  00000+0  00000+0 0  9996
2 43873  55.0864 150.6833 0018848 197.0916 328.0909  2.00570678 25376
GPS BIII-2  (PRN 18)    
1 44506U 19056A   22148.40600486 -.00000106  00000+0  00000+0 0  9991
2 44506  55.6698  29.8444 0023061 178.2801 212.3501  2.00557180 20374
GPS BIII-3  (PRN 23)    
1 45854U 20041A   22148.18885966 -.00000059  00000+0  00000+0 0  9994
2 45854  55.5081  87.1237 0021512 177.9507 351.8102  2.00559426 14331
GPS BIII-4  (PRN 14)    
1 46826U 20078A   22148.55407256 -.00000058  00000+0  00000+0 0  9996
2 46826  54.5801 270.9028 0019320 185.3115 222.6501  2.00565304 11812
GPS BIII-5  (PRN 11)    
1 48859U 21054A   22148.48382615 -.00000107  00000+0  00000+0 0  9997
2 48859  55.1750  31.8514 0003902 195.1955 345.0033  2.00574941  7052
